[{"OBJECT_NAME":"STARLINK-36060","OBJECT_ID":"2025-298R","EPOCH":"2026-03-09T22:00:01.999584","MEAN_MOTION":14.98356266,"ECCENTRICITY":0.0002785,"INCLINATION":70.0013,"RA_OF_ASC_NODE":13.8822,"ARG_OF_PERICENTER":268.1608,"MEAN_ANOMALY":9.2301,"EPHEMERIS_TYPE":0,"CLASSIFICATION_TYPE":"U","NORAD_CAT_ID":67090,"ELEMENT_SET_NO":999,"REV_AT_EPOCH":590,"BSTAR":-0.0022074468,"MEAN_MOTION_DOT":-0.00026351,"MEAN_MOTION_DDOT":0},{"OBJECT_NAME":"CZ-6A DEB","OBJECT_ID":"2022-151TF","EPOCH":"2026-03-09T20:10:56.828064","MEAN_MOTION":14.824189,"ECCENTRICITY":0.01303169,"INCLINATION":98.7184,"RA_OF_ASC_NODE":180.8188,"ARG_OF_PERICENTER":97.1353,"MEAN_ANOMALY":264.4696,"EPHEMERIS_TYPE":0,"CLASSIFICATION_TYPE":"U","NORAD_CAT_ID":54966,"ELEMENT_SET_NO":999,"REV_AT_EPOCH":17789,"BSTAR":0.0010552869,"MEAN_MOTION_DOT":9.753e-5,"MEAN_MOTION_DDOT":0}]
